start=new Date('2023-06-24T00:00:00.000Z').valueOf();
sats=[{"SITE":"AFWTR","ECCENTRICITY":"0.00005710","OBJECT_NAME":"STARLINK-4457","TIME_SYSTEM":"UTC","COUNTRY_CODE":"US","CENTER_NAME":"EARTH","DECAY_DATE":null,"OBJECT_TYPE":"PAYLOAD","BSTAR":"0.00010861000000","INCLINATION":"97.6568","SEMIMAJOR_AXIS":"6941.129","ELEMENT_SET_NO":"999","MEAN_MOTION":"15.01265916","MEAN_ANOMALY":"175.9377","PERIOD":"95.919","REV_AT_EPOCH":"4497","RCS_SIZE":"LARGE","CLASSIFICATION_TYPE":"U","MEAN_ELEMENT_THEORY":"SGP4","TLE_LINE1":"1 53663U 22105R   23174.63693057  .00001337  00000-0  10861-3 0  9992","EPHEMERIS_TYPE":"0","EPOCH":"2023-06-23T15:17:10.801248","ARG_OF_PERICENTER":"184.1843","RA_OF_ASC_NODE":"55.6016","NORAD_CAT_ID":"53663","MEAN_MOTION_DOT":"0.00001337","MEAN_MOTION_DDOT":"0.0000000000000","OBJECT_ID":"2022-105R","APOAPSIS":"563.390","FILE":"3941026","TLE_LINE2":"2 53663  97.6568  55.6016 0000571 184.1843 175.9377 15.01265916 44970","REF_FRAME":"TEME","PERIAPSIS":"562.597","LAUNCH_DATE":"2022-08-31","GP_ID":"234510672"},{"BSTAR":"0.00012824000000","OBJECT_TYPE":"PAYLOAD","REV_AT_EPOCH":"4498","MEAN_ANOMALY":"268.4601","PERIOD":"95.919","ELEMENT_SET_NO":"999","SEMIMAJOR_AXIS":"6941.120","INCLINATION":"97.6586","MEAN_MOTION":"15.01268809","TIME_SYSTEM":"UTC","OBJECT_NAME":"STARLINK-4471","ECCENTRICITY":"0.00015520","SITE":"AFWTR","DECAY_DATE":null,"CENTER_NAME":"EARTH","COUNTRY_CODE":"US","TLE_LINE2":"2 53664  97.6586  55.6688 0001552  91.6801 268.4601 15.01268809 44985","APOAPSIS":"564.062","FILE":"3941012","OBJECT_ID":"2022-105S","MEAN_MOTION_DDOT":"0.0000000000000","GP_ID":"234510695","LAUNCH_DATE":"2022-08-31","PERIAPSIS":"561.907","REF_FRAME":"TEME","EPOCH":"2023-06-23T16:40:10.824672","MEAN_ELEMENT_THEORY":"SGP4","TLE_LINE1":"1 53664U 22105S   23174.69456973  .00001589  00000-0  12824-3 0  9993","EPHEMERIS_TYPE":"0","CLASSIFICATION_TYPE":"U","RCS_SIZE":"LARGE","NORAD_CAT_ID":"53664","MEAN_MOTION_DOT":"0.00001589","RA_OF_ASC_NODE":"55.6688","ARG_OF_PERICENTER":"91.6801"},{"DECAY_DATE":null,"CENTER_NAME":"EARTH","COUNTRY_CODE":"US","TIME_SYSTEM":"UTC","OBJECT_NAME":"STARLINK-4334","ECCENTRICITY":"0.00010420","SITE":"AFWTR","REV_AT_EPOCH":"4494","PERIOD":"95.919","MEAN_ANOMALY":"248.3971","SEMIMAJOR_AXIS":"6941.139","INCLINATION":"97.6572","ELEMENT_SET_NO":"999","MEAN_MOTION":"15.01262425","BSTAR":"0.00011986000000","OBJECT_TYPE":"PAYLOAD","MEAN_MOTION_DOT":"0.00001481","NORAD_CAT_ID":"53665","RA_OF_ASC_NODE":"55.4112","ARG_OF_PERICENTER":"111.7364","EPOCH":"2023-06-23T10:18:34.875648","EPHEMERIS_TYPE":"0","TLE_LINE1":"1 53665U 22105T   23174.42957032  .00001481  00000-0  11986-3 0  9996","MEAN_ELEMENT_THEORY":"SGP4","CLASSIFICATION_TYPE":"U","RCS_SIZE":"LARGE","GP_ID":"234503706","PERIAPSIS":"562.281","LAUNCH_DATE":"2022-08-31","REF_FRAME":"TEME","TLE_LINE2":"2 53665  97.6572  55.4112 0001042 111.7364 248.3971 15.01262425 44944","FILE":"3940730","APOAPSIS":"563.728","OBJECT_ID":"2022-105T","MEAN_MOTION_DDOT":"0.0000000000000"},{"GP_ID":"234510403","PERIAPSIS":"561.479","LAUNCH_DATE":"2022-08-31","REF_FRAME":"TEME","FILE":"3941013","APOAPSIS":"564.509","TLE_LINE2":"2 53666  97.6589  55.6046 0002183  94.4407 265.7067 15.01265800 44975","MEAN_MOTION_DDOT":"0.0000000000000","OBJECT_ID":"2022-105U","MEAN_MOTION_DOT":"0.00001273","NORAD_CAT_ID":"53666","RA_OF_ASC_NODE":"55.6046","ARG_OF_PERICENTER":"94.4407","EPOCH":"2023-06-23T14:58:31.332000","CLASSIFICATION_TYPE":"U","EPHEMERIS_TYPE":"0","TLE_LINE1":"1 53666U 22105U   23174.62397375  .00001273  00000-0  10370-3 0  9992","MEAN_ELEMENT_THEORY":"SGP4","RCS_SIZE":"LARGE","REV_AT_EPOCH":"4497","PERIOD":"95.919","MEAN_ANOMALY":"265.7067","SEMIMAJOR_AXIS":"6941.129","MEAN_MOTION":"15.01265800","ELEMENT_SET_NO":"999","INCLINATION":"97.6589","BSTAR":"0.00010370000000","OBJECT_TYPE":"PAYLOAD","CENTER_NAME":"EARTH","DECAY_DATE":null,"COUNTRY_CODE":"US","TIME_SYSTEM":"UTC","ECCENTRICITY":"0.00021830","OBJECT_NAME":"STARLINK-4449","SITE":"AFWTR"},{"SITE":"AFWTR","OBJECT_NAME":"STARLINK-4406","ECCENTRICITY":"0.00011110","TIME_SYSTEM":"UTC","COUNTRY_CODE":"US","DECAY_DATE":null,"CENTER_NAME":"EARTH","OBJECT_TYPE":"PAYLOAD","BSTAR":"0.00029848000000","INCLINATION":"97.6572","SEMIMAJOR_AXIS":"6941.122","ELEMENT_SET_NO":"999","MEAN_MOTION":"15.01268052","MEAN_ANOMALY":"202.3775","PERIOD":"95.919","REV_AT_EPOCH":"4494","RCS_SIZE":"LARGE","TLE_LINE1":"1 53667U 22105V   23174.43327867  .00003778  00000-0  29848-3 0  9993","MEAN_ELEMENT_THEORY":"SGP4","EPHEMERIS_TYPE":"0","CLASSIFICATION_TYPE":"U","EPOCH":"2023-06-23T10:23:55.277088","RA_OF_ASC_NODE":"55.4027","ARG_OF_PERICENTER":"157.7498","MEAN_MOTION_DOT":"0.00003778","NORAD_CAT_ID":"53667","OBJECT_ID":"2022-105V","MEAN_MOTION_DDOT":"0.0000000000000","TLE_LINE2":"2 53667  97.6572  55.4027 0001111 157.7498 202.3775 15.01268052 44940","FILE":"3940721","APOAPSIS":"563.758","REF_FRAME":"TEME","LAUNCH_DATE":"2022-08-31","PERIAPSIS":"562.216","GP_ID":"234503371"},{"SITE":"AFWTR","ECCENTRICITY":"0.00014690","OBJECT_NAME":"STARLINK-4458","TIME_SYSTEM":"UTC","COUNTRY_CODE":"US","CENTER_NAME":"EARTH","DECAY_DATE":null,"OBJECT_TYPE":"PAYLOAD","BSTAR":"0.00008350200000","SEMIMAJOR_AXIS":"6941.147","ELEMENT_SET_NO":"999","INCLINATION":"97.6600","MEAN_MOTION":"15.01259975","MEAN_ANOMALY":"257.2022","PERIOD":"95.919","REV_AT_EPOCH":"4494","RCS_SIZE":"LARGE","CLASSIFICATION_TYPE":"U","TLE_LINE1":"1 53668U 22105W   23174.42586921  .00001014  00000-0  83502-4 0  9990","MEAN_ELEMENT_THEORY":"SGP4","EPHEMERIS_TYPE":"0","EPOCH":"2023-06-23T10:13:15.099744","RA_OF_ASC_NODE":"55.4023","ARG_OF_PERICENTER":"102.9366","NORAD_CAT_ID":"53668","MEAN_MOTION_DOT":"0.00001014","MEAN_MOTION_DDOT":"0.0000000000000","OBJECT_ID":"2022-105W","FILE":"3940737","APOAPSIS":"564.032","TLE_LINE2":"2 53668  97.6600  55.4023 0001469 102.9366 257.2022 15.01259975 44949","REF_FRAME":"TEME","LAUNCH_DATE":"2022-08-31","PERIAPSIS":"561.992","GP_ID":"234504303"},{"MEAN_MOTION_DDOT":"0.0000000000000","OBJECT_ID":"2022-105X","APOAPSIS":"563.895","FILE":"3941013","TLE_LINE2":"2 53669  97.6562  55.6609 0001408  90.6855 269.4531 15.01290679 44988","REF_FRAME":"TEME","PERIAPSIS":"561.940","LAUNCH_DATE":"2022-08-31","GP_ID":"234510711","RCS_SIZE":"LARGE","CLASSIFICATION_TYPE":"U","TLE_LINE1":"1 53669U 22105X   23174.69802239 -.00004481  00000-0 -34425-3 0  9995","EPHEMERIS_TYPE":"0","MEAN_ELEMENT_THEORY":"SGP4","EPOCH":"2023-06-23T16:45:09.134496","RA_OF_ASC_NODE":"55.6609","ARG_OF_PERICENTER":"90.6855","NORAD_CAT_ID":"53669","MEAN_MOTION_DOT":"-0.00004481","OBJECT_TYPE":"PAYLOAD","BSTAR":"-0.00034425000000","SEMIMAJOR_AXIS":"6941.052","ELEMENT_SET_NO":"999","MEAN_MOTION":"15.01290679","INCLINATION":"97.6562","PERIOD":"95.917","MEAN_ANOMALY":"269.4531","REV_AT_EPOCH":"4498","SITE":"AFWTR","ECCENTRICITY":"0.00014080","OBJECT_NAME":"STARLINK-4464","TIME_SYSTEM":"UTC","COUNTRY_CODE":"US","CENTER_NAME":"EARTH","DECAY_DATE":null},{"GP_ID":"234510716","PERIAPSIS":"561.689","LAUNCH_DATE":"2022-08-31","REF_FRAME":"TEME","TLE_LINE2":"2 53670  97.6600  55.6002 0001897 100.4257 259.7181 15.01262101 44979","FILE":"3941014","APOAPSIS":"564.322","OBJECT_ID":"2022-105Y","MEAN_MOTION_DDOT":"0.0000000000000","MEAN_MOTION_DOT":"0.00000937","NORAD_CAT_ID":"53670","ARG_OF_PERICENTER":"100.4257","RA_OF_ASC_NODE":"55.6002","EPOCH":"2023-06-23T14:55:51.590496","MEAN_ELEMENT_THEORY":"SGP4","TLE_LINE1":"1 53670U 22105Y   23174.62212489  .00000937  00000-0  77510-4 0  9995","EPHEMERIS_TYPE":"0","CLASSIFICATION_TYPE":"U","RCS_SIZE":"LARGE","REV_AT_EPOCH":"4497","MEAN_ANOMALY":"259.7181","PERIOD":"95.919","SEMIMAJOR_AXIS":"6941.140","ELEMENT_SET_NO":"999","MEAN_MOTION":"15.01262101","INCLINATION":"97.6600","BSTAR":"0.00007751000000","OBJECT_TYPE":"PAYLOAD","DECAY_DATE":null,"CENTER_NAME":"EARTH","COUNTRY_CODE":"US","TIME_SYSTEM":"UTC","OBJECT_NAME":"STARLINK-4459","ECCENTRICITY":"0.00018970","SITE":"AFWTR"},{"DECAY_DATE":null,"CENTER_NAME":"EARTH","COUNTRY_CODE":"US","TIME_SYSTEM":"UTC","OBJECT_NAME":"STARLINK-4440","ECCENTRICITY":"0.00019620","SITE":"AFWTR","REV_AT_EPOCH":"4499","MEAN_ANOMALY":"259.5923","PERIOD":"95.919","ELEMENT_SET_NO":"999","SEMIMAJOR_AXIS":"6941.126","INCLINATION":"97.6593","MEAN_MOTION":"15.01266888","BSTAR":"0.00011185000000","OBJECT_TYPE":"PAYLOAD","NORAD_CAT_ID":"53671","MEAN_MOTION_DOT":"0.00001378","RA_OF_ASC_NODE":"55.7360","ARG_OF_PERICENTER":"100.5522","EPOCH":"2023-06-23T18:08:09.805920","TLE_LINE1":"1 53671U 22105Z   23174.75566905  .00001378  00000-0  11185-3 0  9990","MEAN_ELEMENT_THEORY":"SGP4","EPHEMERIS_TYPE":"0","CLASSIFICATION_TYPE":"U","RCS_SIZE":"LARGE","GP_ID":"234510422","LAUNCH_DATE":"2022-08-31","PERIAPSIS":"561.629","REF_FRAME":"TEME","TLE_LINE2":"2 53671  97.6593  55.7360 0001962 100.5522 259.5923 15.01266888 44998","FILE":"3941014","APOAPSIS":"564.352","OBJECT_ID":"2022-105Z","MEAN_MOTION_DDOT":"0.0000000000000"},{"EPOCH":"2023-06-23T02:05:42.874656","RCS_SIZE":"LARGE","CLASSIFICATION_TYPE":"U","EPHEMERIS_TYPE":"0","TLE_LINE1":"1 53672U 22105AA  23174.08730179  .00000872  00000-0  72484-4 0  9991","MEAN_ELEMENT_THEORY":"SGP4","NORAD_CAT_ID":"53672","MEAN_MOTION_DOT":"0.00000872","ARG_OF_PERICENTER":"97.9606","RA_OF_ASC_NODE":"55.0714","MEAN_MOTION_DDOT":"0.0000000000000","OBJECT_ID":"2022-105AA","APOAPSIS":"564.586","FILE":"3940464","TLE_LINE2":"2 53672  97.6585  55.0714 0002269  97.9606 262.1876 15.01260205 44892","LAUNCH_DATE":"2022-08-31","PERIAPSIS":"561.436","GP_ID":"234496899","REF_FRAME":"TEME","ECCENTRICITY":"0.00022690","OBJECT_NAME":"STARLINK-4428","TIME_SYSTEM":"UTC","SITE":"AFWTR","COUNTRY_CODE":"US","CENTER_NAME":"EARTH","DECAY_DATE":null,"OBJECT_TYPE":"PAYLOAD","BSTAR":"0.00007248400000","MEAN_ANOMALY":"262.1876","PERIOD":"95.919","REV_AT_EPOCH":"4489","SEMIMAJOR_AXIS":"6941.146","ELEMENT_SET_NO":"999","INCLINATION":"97.6585","MEAN_MOTION":"15.01260205"}];
